STARLINK-1542           
1 46073U 20055AY  26158.97475786 -.00002786  00000+0 -78062-4 0  9998
2 46073  53.1596  44.7559 0001049 104.8059 255.3059 15.31694225323012
STARLINK-1549           
1 46074U 20055AZ  26158.93455370  .00039573  00000+0  13780-2 0  9998
2 46074  53.0632  42.1024 0001822 194.7988 165.2958 15.29314359323033
STARLINK-1551           
1 46075U 20055BA  26158.93893209  .00001195  00000+0  52487-4 0  9994
2 46075  53.1605  41.8652 0001061  96.2209 263.8913 15.30183066323054
STARLINK-1552           
1 46076U 20055BB  26158.92736126 -.00001608  00000+0 -40056-4 0  9998
2 46076  53.1628  41.5264 0001313  95.9343 264.1808 15.31691857323040
STARLINK-1559           
1 46077U 20055BC  26158.85912661  .00041377  00000+0  10838-2 0  9999
2 46077  53.0245  11.3350 0001115 112.3560 247.7561 15.38317278323425
STARLINK-1566           
1 46079U 20055BE  26158.93200113 -.00001038  00000+0 -21692-4 0  9996
2 46079  53.1621  41.3585 0001263  85.7028 274.4118 15.31693187323069
STARLINK-1568           
1 46080U 20055BF  26158.74985084  .00050425  00000+0  76214-3 0  9995
2 46080  53.0582 320.7509 0002980  69.3565 290.7764 15.54231765324162
STARLINK-1578           
1 46082U 20055BH  26158.93639293 -.00000265  00000+0  32239-5 0  9995
2 46082  53.1618  41.8507 0001466 126.3278 233.7859 15.31689402323056
STARLINK-1579           
1 46083U 20055BJ  26158.92268575 -.00001102  00000+0 -23759-4 0  9994
2 46083  53.1603  41.4549 0001162  95.0593 265.0541 15.31688706323050
BSAT-4B                 
1 46112U 20056A   26158.99160606 -.00000335  00000+0  00000+0 0  9996
2 46112   0.0494 168.0088 0004050 306.4242 248.7625  1.00270089 21299
MEV-2                   
1 46113U 20056B   26158.91574572  .00000004  00000+0  00000+0 0  9992
2 46113   0.0048 329.6678 0000446 189.7889  65.5178  1.00271594 80441
GALAXY 30 (G-30)        
1 46114U 20056C   26158.96248221  .00000052  00000+0  00000+0 0  9990
2 46114   0.0178 358.1248 0002238  76.5119  43.2111  1.00272767 21208
STARLINK-1622           
1 46128U 20057M   26159.33337963  .00169595  00000+0  69471-3 0  9999
2 46128  53.0141 133.5423 0006983  64.9847 214.9598 15.85033722  6013
STARLINK-1623           
1 46129U 20057N   26159.33337963  .00102040  00000+0  66997-3 0  9992
2 46129  53.0409 171.7814 0006346  32.2932  66.0527 15.74931565  5944
STARLINK-1596           
1 46141U 20057AA  26159.21665285  .00087613  00000+0  10712-2 0  9995
2 46141  53.0348 154.8963 0006934  34.2240 325.9218 15.59674131321338
STARLINK-1597           
1 46142U 20057AB  26158.40421043  .00109457  00000+0  73046-3 0  9999
2 46142  53.0403 216.1516 0004906  26.8864 333.2408 15.74536378320398
STARLINK-1606           
1 46144U 20057AD  26159.33337963  .00343103  57180-4  89575-3 0  9999
2 46144  53.0327 164.3786 0001866 146.3784 252.2613 15.94451569  5869
STARLINK-1608           
1 46146U 20057AF  26158.98219050  .00049635  00000+0  13966-2 0  9994
2 46146  53.1582 248.5764 0004480 341.2378  18.8460 15.36012608320023
STARLINK-1667           
1 46155U 20057AQ  26159.33337963  .00330580  51882-4  10364-2 0  9998
2 46155  53.0102 132.7089 0006614  67.0381 245.3954 15.90927191  6020
STARLINK-1545           
1 46156U 20057AR  26159.33337963  .00234665  00000+0  90135-3 0  9992
2 46156  53.0370 169.0378 0001524  77.5572 198.8989 15.86217149  5912
STARLINK-1595           
1 46159U 20057AU  26159.33337963  .00018796  00000+0  14183-3 0  9999
2 46159  53.0409 214.2880 0005423  19.7085  26.6469 15.72542669  5989
STARLINK-1598           
1 46160U 20057AV  26159.33337963  .00020625  00000+0  15643-3 0  9997
2 46160  53.0428 200.4462 0001417 331.3544 220.3023 15.72361171  5938
STARLINK-1626           
1 46167U 20057BC  26159.33337963 -.00008784  00000+0 -52304-4 0  9994
2 46167  53.0396 209.8911 0001573  71.5764 187.0064 15.75605205  5937
STARLINK-1633           
1 46171U 20057BG  26159.33337963  .00130340  00000+0  58256-3 0  9992
2 46171  53.0332 170.9258 0001608  90.7044 132.4347 15.83353165  5951
STARLINK-1635           
1 46172U 20057BH  26159.33337963  .00498949  00000+0  16052-2 0  9992
2 46172  53.0337 168.7877 0001596 101.9885  42.0999 15.89163835  5951
STARLINK-1640           
1 46173U 20057BJ  26159.23438539  .00131861  00000+0  95589-3 0  9993
2 46173  53.0410 215.8095 0005727  19.2840 340.8393 15.72515190320473
STARLINK-1641           
1 46174U 20057BK  26158.84685606  .00060558  00000+0  66654-3 0  9994
2 46174  53.0454 209.3336 0001529  43.7307 316.3827 15.62587972320537
GAOFEN-9 05             
1 46232U 20058A   26159.25707692  .00008131  00000+0  26649-3 0  9995
2 46232  97.2091 199.7809 0009923 122.5571 237.6630 15.31844159322247
SAOCOM 1B               
1 46265U 20059A   26159.32341569 -.00000084  00000+0 -39869-5 0  9998
2 46265  97.8891 345.2952 0001479  77.4710 282.6668 14.82161847312178
GNOMES-1                
1 46266U 20059B   26159.12472757  .00003389  00000+0  27491-3 0  9996
2 46266  97.7872   9.4957 0013050  46.3569 313.8735 15.00281342314231
